{
  "norad_id": 62026,
  "name": "STARLINK-32561",
  "history": [
    {
      "epoch": "2026-04-13T03:57:01.029600Z",
      "apogee_km": 476.09498503264876,
      "perigee_km": 474.33134390132363,
      "latitude_deg": -4.554287795059241e-06,
      "longitude_deg": 107.33930495145275,
      "height_km": 476.07867084486077,
      "semi_major_axis_km": 6853.350164466986,
      "eccentricity": 0.00012867,
      "inclination_deg": 53.16,
      "raan_deg": 7.9529,
      "arg_perigee_deg": 87.8847,
      "mean_anomaly_deg": 272.2301,
      "mean_motion_rev_day": 15.30200638
    },
    {
      "epoch": "2026-04-14T20:42:24.101280Z",
      "apogee_km": 476.31175940497997,
      "perigee_km": 474.1090935421116,
      "latitude_deg": 1.2707724893263234e-05,
      "longitude_deg": -153.56971862696153,
      "height_km": 476.12793510828556,
      "semi_major_axis_km": 6853.347426473546,
      "eccentricity": 0.0001607,
      "inclination_deg": 53.1598,
      "raan_deg": 0.0638,
      "arg_perigee_deg": 91.0367,
      "mean_anomaly_deg": 269.0818,
      "mean_motion_rev_day": 15.30201555
    },
    {
      "epoch": "2026-04-15T02:58:36.579936Z",
      "apogee_km": 476.00150141998347,
      "perigee_km": 474.34382287890367,
      "latitude_deg": -4.14938422058584e-06,
      "longitude_deg": 110.90646965842924,
      "height_km": 475.960471619357,
      "semi_major_axis_km": 6853.309662149443,
      "eccentricity": 0.00012094,
      "inclination_deg": 53.1601,
      "raan_deg": 358.8495,
      "arg_perigee_deg": 82.3468,
      "mean_anomaly_deg": 277.767,
      "mean_motion_rev_day": 15.30214203
    },
    {
      "epoch": "2026-04-17T22:22:54.304608Z",
      "apogee_km": 476.35490252929867,
      "perigee_km": 474.03340513424973,
      "latitude_deg": 3.198245743149269e-05,
      "longitude_deg": 164.01892665686796,
      "height_km": 476.14802224984135,
      "semi_major_axis_km": 6853.331153831774,
      "eccentricity": 0.00016937,
      "inclination_deg": 53.1607,
      "raan_deg": 345.804,
      "arg_perigee_deg": 92.7807,
      "mean_anomaly_deg": 267.3388,
      "mean_motion_rev_day": 15.30207005
    },
    {
      "epoch": "2026-04-18T01:31:00.640704Z",
      "apogee_km": 476.21526959777384,
      "perigee_km": 474.1777735418109,
      "latitude_deg": -4.586914178749338e-06,
      "longitude_deg": 116.25664538014436,
      "height_km": 476.11044787938306,
      "semi_major_axis_km": 6853.333521569792,
      "eccentricity": 0.00014865,
      "inclination_deg": 53.1608,
      "raan_deg": 345.1969,
      "arg_perigee_deg": 90.9034,
      "mean_anomaly_deg": 269.2137,
      "mean_motion_rev_day": 15.30206212
    },
    {
      "epoch": "2026-04-19T21:24:30.267936Z",
      "apogee_km": 476.53210373095317,
      "perigee_km": 473.92097222298435,
      "latitude_deg": 7.068433962513702e-05,
      "longitude_deg": 167.58419107971025,
      "height_km": 476.55176320775774,
      "semi_major_axis_km": 6853.3635379769685,
      "eccentricity": 0.0001905,
      "inclination_deg": 53.1626,
      "raan_deg": 336.7004,
      "arg_perigee_deg": 109.1201,
      "mean_anomaly_deg": 251.0007,
      "mean_motion_rev_day": 15.30196159
    },
    {
      "epoch": "2026-04-20T08:22:52.711680Z",
      "apogee_km": 476.1443295660483,
      "perigee_km": 474.3233889287476,
      "latitude_deg": -2.3386625961973152e-05,
      "longitude_deg": 0.4173634574866138,
      "height_km": 476.33220715321096,
      "semi_major_axis_km": 6853.370859247398,
      "eccentricity": 0.00013285,
      "inclination_deg": 53.1609,
      "raan_deg": 334.5778,
      "arg_perigee_deg": 102.7033,
      "mean_anomaly_deg": 257.4116,
      "mean_motion_rev_day": 15.30193707
    },
    {
      "epoch": "2026-04-21T20:26:05.820000Z",
      "apogee_km": 476.0346826908226,
      "perigee_km": 474.37069181475636,
      "latitude_deg": -4.616507764719106e-06,
      "longitude_deg": 171.15378534226602,
      "height_km": 476.3590564321261,
      "semi_major_axis_km": 6853.339687252789,
      "eccentricity": 0.0001214,
      "inclination_deg": 53.161,
      "raan_deg": 327.5995,
      "arg_perigee_deg": 108.0674,
      "mean_anomaly_deg": 252.0459,
      "mean_motion_rev_day": 15.30204147
    },
    {
      "epoch": "2026-04-21T22:00:09.133632Z",
      "apogee_km": 476.0955937586723,
      "perigee_km": 474.3425052812054,
      "latitude_deg": 4.75935602732337e-05,
      "longitude_deg": 147.274038753093,
      "height_km": 476.21486170626594,
      "semi_major_axis_km": 6853.356049519938,
      "eccentricity": 0.0001279,
      "inclination_deg": 53.161,
      "raan_deg": 327.2979,
      "arg_perigee_deg": 96.3956,
      "mean_anomaly_deg": 263.7191,
      "mean_motion_rev_day": 15.30198667
    },
    {
      "epoch": "2026-04-24T20:32:32.639712Z",
      "apogee_km": 476.3658753667296,
      "perigee_km": 473.9644782839705,
      "latitude_deg": 4.6418535567350764e-05,
      "longitude_deg": 152.62502145518135,
      "height_km": 475.89206696749625,
      "semi_major_axis_km": 6853.30217682535,
      "eccentricity": 0.0001752,
      "inclination_deg": 53.1612,
      "raan_deg": 313.6438,
      "arg_perigee_deg": 81.8284,
      "mean_anomaly_deg": 278.2916,
      "mean_motion_rev_day": 15.3021671
    },
    {
      "epoch": "2026-04-25T20:03:20.433888Z",
      "apogee_km": 475.9741069639749,
      "perigee_km": 474.4882967378144,
      "latitude_deg": -5.715763405205814e-05,
      "longitude_deg": 154.4094457690656,
      "height_km": 475.83564689709743,
      "semi_major_axis_km": 6853.368201850894,
      "eccentricity": 0.0001084,
      "inclination_deg": 53.1586,
      "raan_deg": 309.0931,
      "arg_perigee_deg": 66.6992,
      "mean_anomaly_deg": 293.4122,
      "mean_motion_rev_day": 15.30194597
    },
    {
      "epoch": "2026-04-26T19:34:08.782752Z",
      "apogee_km": 475.95859977339296,
      "perigee_km": 474.44223033693834,
      "latitude_deg": 1.7749625322368033e-05,
      "longitude_deg": 156.1949861576628,
      "height_km": 476.0203928211194,
      "semi_major_axis_km": 6853.337415055165,
      "eccentricity": 0.00011063,
      "inclination_deg": 53.1585,
      "raan_deg": 304.5457,
      "arg_perigee_deg": 84.0824,
      "mean_anomaly_deg": 276.0303,
      "mean_motion_rev_day": 15.30204908
    },
    {
      "epoch": "2026-04-27T19:04:56.743680Z",
      "apogee_km": 475.9458695054891,
      "perigee_km": 474.49844005199975,
      "latitude_deg": -6.697342044748499e-06,
      "longitude_deg": 157.97497365755393,
      "height_km": 475.8386479485494,
      "semi_major_axis_km": 6853.359154778745,
      "eccentricity": 0.0001056,
      "inclination_deg": 53.1585,
      "raan_deg": 299.9912,
      "arg_perigee_deg": 67.0817,
      "mean_anomaly_deg": 293.0295,
      "mean_motion_rev_day": 15.30197627
    },
    {
      "epoch": "2026-04-28T18:35:45.058848Z",
      "apogee_km": 475.9786394142384,
      "perigee_km": 474.55861376840767,
      "latitude_deg": 2.202652409525464e-06,
      "longitude_deg": 159.76070592400816,
      "height_km": 476.106913418237,
      "semi_major_axis_km": 6853.405626591322,
      "eccentricity": 0.0001036,
      "inclination_deg": 53.1587,
      "raan_deg": 295.4439,
      "arg_perigee_deg": 85.1553,
      "mean_anomaly_deg": 274.9566,
      "mean_motion_rev_day": 15.30182063
    },
    {
      "epoch": "2026-04-29T16:32:29.935104Z",
      "apogee_km": 475.83353560724845,
      "perigee_km": 474.5396281149924,
      "latitude_deg": 8.96665486565506e-06,
      "longitude_deg": -174.5775550386118,
      "height_km": 475.9348699112088,
      "semi_major_axis_km": 6853.32358186112,
      "eccentricity": 9.44e-05,
      "inclination_deg": 53.1585,
      "raan_deg": 291.1939,
      "arg_perigee_deg": 76.5841,
      "mean_anomaly_deg": 283.5265,
      "mean_motion_rev_day": 15.30209541
    },
    {
      "epoch": "2026-04-30T11:21:07.657056Z",
      "apogee_km": 476.01631696423283,
      "perigee_km": 474.232687125711,
      "latitude_deg": -3.750493513939086e-05,
      "longitude_deg": -101.14648349981067,
      "height_km": 476.18236335998984,
      "semi_major_axis_km": 6853.261502044971,
      "eccentricity": 0.00013013,
      "inclination_deg": 53.1591,
      "raan_deg": 287.5547,
      "arg_perigee_deg": 100.3277,
      "mean_anomaly_deg": 259.787,
      "mean_motion_rev_day": 15.30230333
    },
    {
      "epoch": "2026-05-02T04:06:30.949920Z",
      "apogee_km": 475.82770669663387,
      "perigee_km": 474.6091800987988,
      "latitude_deg": 4.287963129417415e-05,
      "longitude_deg": -2.056687939326932,
      "height_km": 476.2092394529163,
      "semi_major_axis_km": 6853.355443397716,
      "eccentricity": 8.89e-05,
      "inclination_deg": 53.1616,
      "raan_deg": 279.6653,
      "arg_perigee_deg": 98.688,
      "mean_anomaly_deg": 261.4222,
      "mean_motion_rev_day": 15.3019887
    },
    {
      "epoch": "2026-05-03T16:09:44.568000Z",
      "apogee_km": 476.2189104448735,
      "perigee_km": 474.16291207149607,
      "latitude_deg": -2.36706843260414e-05,
      "longitude_deg": 168.67844035939763,
      "height_km": 475.9634317527016,
      "semi_major_axis_km": 6853.327911258184,
      "eccentricity": 0.00015,
      "inclination_deg": 53.1597,
      "raan_deg": 272.6879,
      "arg_perigee_deg": 83.003,
      "mean_anomaly_deg": 277.1141,
      "mean_motion_rev_day": 15.30208091
    },
    {
      "epoch": "2026-05-04T17:14:35.782080Z",
      "apogee_km": 475.9394434025089,
      "perigee_km": 474.4865332049885,
      "latitude_deg": 1.289086766111576e-05,
      "longitude_deg": 146.58113638241932,
      "height_km": 476.17065073220164,
      "semi_major_axis_km": 6853.349988303748,
      "eccentricity": 0.000106,
      "inclination_deg": 53.1629,
      "raan_deg": 267.834,
      "arg_perigee_deg": 94.6576,
      "mean_anomaly_deg": 265.4546,
      "mean_motion_rev_day": 15.30200697
    }
  ]
}